ELFIN-A                 
1 43617U 18070E   21121.45371898  .00008505  00000-0  18291-3 0  9991
2 43617  93.0276 287.3370 0013989 171.0228 189.1282 15.44550454147539
CUBEBEL-1 (BSUSAT-1)    
1 43666U 18083E   21121.88541786  .00001908  00000-0  93721-4 0  9993
2 43666  97.4601 150.8358 0013763 338.4949 145.4255 15.19209402138948
CICERO 10               
1 43690U 18088A   21121.73963039  .00001726  00000-0  75714-4 0  9998
2 43690  85.0406 228.4682 0013217 214.2900 145.7489 15.21108792137107
IRVINE01                
1 43693U 18088D   21121.78170632  .00004714  00000-0  18543-3 0  9991
2 43693  85.0372 225.9574 0016595 189.7314 170.3611 15.25237010137326
PROXIMA I               
1 43694U 18088E   21121.76261762  .00001853  00000-0  77127-4 0  9990
2 43694  85.0349 226.1831 0018484 185.2782 174.8269 15.22840158137260
PROXIMA II              
1 43696U 18088G   21121.76080573  .00001850  00000-0  77027-4 0  9997
2 43696  85.0350 226.1922 0018540 185.2431 174.8621 15.22838436137267
FACSAT-1                
1 43721U 18096C   21121.85366514  .00002952  00000-0  10817-3 0  9994
2 43721  97.3861 199.3519 0018505  77.5904 347.1576 15.28653469135002
CENTAURI-2              
1 43722U 18096D   21121.78023175  .00003568  00000-0  12605-3 0  9991
2 43722  97.3882 199.9826 0018195  77.8913 282.4365 15.29714644135024
INNOSAT-2               
1 43738U 18096V   21121.81837045  .00005977  00000-0  18789-3 0  9996
2 43738  97.3936 203.5215 0023203  79.1263  61.0594 15.33095231135253
SIRION PATHFINDER-2     
1 43759U 18099B   21121.55685987  .00000484  00000-0  48828-4 0  9995
2 43759  97.6669 193.1515 0013798 193.8793 166.2050 14.95490434131475
CORVUS BC4              
1 43767U 18099K   21121.55041488  .00000599  00000-0  59997-4 0  9992
2 43767  97.6642 192.1947 0011213 197.5590 162.5244 14.94918267131426
MOVE-II                 
1 43780U 18099Y   21121.45391786  .00000637  00000-0  62018-4 0  9996
2 43780  97.6687 193.1550 0012897 205.9657 154.0919 14.95858412131441
SPACEBEE-7              
1 43816U 18099BL  21121.47202563  .00001060  00000-0  99340-4 0  9991
2 43816  97.6703 193.7447 0013277 188.6227 171.4769 14.96073221131033
SPACEBEE-5              
1 43817U 18099BM  21121.44806045  .00001080  00000-0  98196-4 0  9994
2 43817  97.6782 194.8462 0012944 188.6692 171.4309 14.97213692131079
SPACEBEE-6              
1 43818U 18099BN  21121.44763037  .00000545  00000-0  53087-4 0  9993
2 43818  97.6729 194.0657 0013062 189.0559 171.0429 14.96420955131191
SHIELDS 1               
1 43850U 18104B   21121.57366417  .00000804  00000-0  33563-4 0  9996
2 43850  85.0269 324.9651 0014227 350.1243   9.9717 15.21824926131846
STF-1                   
1 43852U 18104D   21121.82074686  .00001911  00000-0  81092-4 0  9990
2 43852  85.0308 325.4695 0014329   3.8763 356.2588 15.22297864131860
ZACUBE-2                
1 43907U 18111AH  21121.74267728  .00001141  00000-0  48029-4 0  9999
2 43907  97.2378  17.4476 0023007  97.6547 339.1307 15.25124541130516
LUME 1                  
1 43908U 18111AJ  21121.44939632  .00002009  00000-0  80160-4 0  9993
2 43908  97.2378  17.6559 0022372  97.2720 263.1063 15.26079604130508
AOBA VELOX-IV           
1 43940U 19003J   21121.58605476  .00003884  00000-0  14854-3 0  9999
2 43940  97.1822 167.4369 0023080 171.3869 188.7771 15.26917053127159
CATSAT-2                
1 44029U 98067PV  21103.18846432  .08994300  12447-4  71822-3 0  9990
2 44029  51.6303 210.8330 0006076 315.2983  44.7553 16.39157428125817
UNITE                   
1 44031U 98067PX  21121.49053813  .00035783  00000-0  23814-3 0  9999
2 44031  51.6357 147.3349 0001435  57.6949 302.4189 15.75051907128261
CATSAT-1                
1 44033U 98067PZ  21102.52173143  .03148828  12044-4  93890-3 0  9997
2 44033  51.6349 214.6392 0009094 323.2962  36.7435 16.26195910125613
RAAVANA-1               
1 44329U 98067QE  21121.53495616  .00040355  00000-0  29058-3 0  9992
2 44329  51.6321 166.4852 0004486  69.8911 290.2570 15.73150093106769
UGUISU                  
1 44330U 98067QF  21121.51869958  .00038656  00000-0  28324-3 0  9992
2 44330  51.6309 167.0456 0004570  70.7228 289.4265 15.72760572106736
NEPALISAT-1             
1 44331U 98067QG  21121.52851287  .00040172  00000-0  28999-3 0  9994
2 44331  51.6299 166.3591 0004377  71.8192 288.3283 15.73094072106750
SPOOQY-1                
1 44332U 98067QH  21121.39558233  .00038300  00000-0  28506-3 0  9999
2 44332  51.6316 167.7581 0003920  66.8993 293.2418 15.72398426106687
SPACEBEE-9              
1 44370U 19037F   21121.69586150  .00027696  00000-0  41171-3 0  9992
2 44370  45.0000 125.0775 0007740 309.4845  50.5363 15.54688279103907
SPACEBEE-8              
1 44371U 19037G   21115.38628577  .04142189  47795-1  31371-2 0  9994
2 44371  44.9858 123.2481 0004816 133.1113 227.0208 16.18815125103364
MOVE-IIB                
1 44398U 19038N   21121.57023500  .00002089  00000-0  11955-3 0  9991
2 44398  97.5785  85.8009 0025954 108.9845 251.4196 15.13488985100675
SONATE                  
1 44400U 19038Q   21121.87270527  .00001123  00000-0  67865-4 0  9991
2 44400  97.5848  86.0124 0026462 108.6384 251.7723 15.12474249100698
LUCKY-7                 
1 44406U 19038W   21121.82248165  .00001140  00000-0  68165-4 0  9998
2 44406  97.5858  86.1894 0025842 108.1248 252.2800 15.12858013100692
BEESAT 9                
1 44412U 19038AC  21121.45465239  .00001592  00000-0  92975-4 0  9994
2 44412  97.5843  85.8366 0023780 114.1128 246.2593 15.13153996100349
JAISAT-1                
1 44419U 19038F   21121.43944161  .00001622  00000-0  93455-4 0  9993
2 44419  97.5846  86.3315 0022675 112.4923 247.8712 15.13638506100687
KRAKSAT                 
1 44427U 98067QM  21121.89036119  .00019373  00000-0  19511-3 0  9998
2 44427  51.6403 176.8869 0004497  43.7480 128.3086 15.65417586104176
VCC A                   
1 44428U 98067QN  21121.53475232  .00034666  00000-0  27072-3 0  9996
2 44428  51.6346 170.3170 0004068  41.2125 318.9179 15.71304858104231
ENTRYSAT                
1 44429U 98067QP  21121.48538769  .00063018  00000-0  35884-3 0  9999
2 44429  51.6290 163.0714 0005145  35.6847 324.4497 15.78327149104328
VCC C                   
1 44430U 98067QQ  21121.78687113  .00428987  92279-4  72850-3 0  9999
2 44430  51.6188 149.1592 0008011  29.2564 330.8894 16.01990161103356
VCC B                   
1 44431U 98067QR  21121.50368718  .00035623  00000-0  27283-3 0  9995
2 44431  51.6311 170.0258 0004232  41.2703 318.8615 15.71754021104174
DUCHIFAT-3              
1 44854U 19089C   21121.84745092  .00000875  00000-0  76404-4 0  9993
2 44854  36.9669  16.2402 0006686 121.9450 238.1911 14.99452520 76109
EYESAT-NANO             
1 44877U 19092E   21121.74800535  .00001867  00000-0  95382-4 0  9993
2 44877  97.4605 306.0552 0013104 359.4943   0.6275 15.17868326 75852
ORBITAL FACTORY 2 (OF-2)
1 45113U 19071C   21121.74478712  .00004378  00000-0  13585-3 0  9996
2 45113  51.6417 263.9320 0012423 124.0407 236.1757 15.35467524 69991
M2 PATHFINDER           
1 45727U 20037E   21121.45234887  .00000586  00000-0  64280-4 0  9998
2 45727  97.7163 300.2980 0012091 328.7897  31.2653 14.91363798 45414
NETSAT-4                
1 46504U 20068U   21121.53628227  .00000208  00000-0  20459-4 0  9991
2 46504  97.6905  58.7997 0008415 290.9393  69.0925 15.02074578 32190
NETSAT-3                
1 46505U 20068V   21121.54182310  .00000410  00000-0  35889-4 0  9999
2 46505  97.6900  58.7793 0006607 295.9995  64.0551 15.02040445 32202
NETSAT-1                
1 46506U 20068W   21121.54732947  .00000575  00000-0  48506-4 0  9999
2 46506  97.6901  58.7604 0004869 295.5208  64.5516 15.02009866 32204
NETSAT-2                
1 46507U 20068X   21121.55018792  .00000593  00000-0  49894-4 0  9997
2 46507  97.6886  58.7611 0004293 291.1435  68.9340 15.01987271 32151
SPOC                    
1 46921U 98067RR  21121.64211082  .00009073  00000-0  14701-3 0  9998
2 46921  51.6415 209.3231 0001810 283.9073  76.1716 15.53575360 27577
BOBCAT-1                
1 46922U 98067RS  21121.50922315  .00012482  00000-0  19002-3 0  9999
2 46922  51.6425 209.1984 0001866 299.5272  60.5532 15.54912797 27536
NEUTRON-1               
1 46923U 98067RT  21121.78257894  .00008905  00000-0  14504-3 0  9990
2 46923  51.6414 208.7591 0001942 300.5018  59.5780 15.53455680 27625
1998-067RU              
1 46924U 98067RU  21121.64079679  .00023736  00000-0  32079-3 0  9995
2 46924  51.6395 207.0585 0003266 336.2027  23.8814 15.57618626 27599
DESCENT                 
1 46927U 98067RX  21121.78680116  .00008407  00000-0  13748-3 0  9997
2 46927  51.6413 208.7850 0002342 319.4302  40.6514 15.53429824 27533
SAI-1 NANOCONNECT-2     
1 47701U 21015C   21121.62398986 -.00000071  00000-0  00000+0 0  9994
2 47701  97.4616 196.5172 0014501  99.0993 261.2144 15.22497242  9495
WARP-01                 
1 47924U 98067SA  21121.66256780  .00011471  00000-0  20334-3 0  9992
2 47924  51.6417 212.4410 0005236 301.5041  58.5436 15.50732734  7539
RSP-01                  
1 47925U 98067SB  21121.65953175  .00009759  00000-0  17423-3 0  9995
2 47925  51.6422 212.4235 0001595 234.5703 125.5138 15.50731774  7510
TAUSAT-1                
1 47926U 98067SC  21121.52044917  .00011862  00000-0  20665-3 0  9997
2 47926  51.6422 212.9952 0002750 232.8905 127.1833 15.51194708  7488
TSURU                   
1 47927U 98067SD  21121.66038941  .00008891  00000-0  15989-3 0  9994
2 47927  51.6426 212.4295 0001626 229.4327 130.6521 15.50654518  7515
STARS-EC                
1 47928U 98067SE  21121.79100699  .00009319  00000-0  16751-3 0  9993
2 47928  51.6420 211.7991 0006009 305.0818  54.9607 15.50593938  7512
MAYA-2                  
1 47929U 98067SF  21121.65937863  .00008862  00000-0  15922-3 0  9991
2 47929  51.6424 212.4227 0001701 224.0663 136.0191 15.50686372  7479
